EWS-G2 (GOES 15)        
1 36411U 10008A   24115.84620712  .00000053  00000+0  00000+0 0  9993
2 36411   0.1596  90.5672 0001497 198.5609 290.2123  1.00275329 51774
COMS 1                  
1 36744U 10032A   24115.90834043 -.00000328  00000+0  00000+0 0  9996
2 36744   2.7922  85.1178 0000916 323.1725 260.2510  1.00270914 50800
FENGYUN 3B              
1 37214U 10059A   24116.22862566  .00000296  00000+0  17815-3 0  9994
2 37214  99.0599 143.5712 0021266 240.9324 189.7807 14.14477624696768
SUOMI NPP               
1 37849U 11061A   24116.17972742  .00000346  00000+0  18478-3 0  9996
2 37849  98.7193  54.9632 0001699  79.0987 281.0381 14.19554288647348
FENGYUN 2F              
1 38049U 12002A   24115.90111447 -.00000340  00000+0  00000+0 0  9995
2 38049   5.4624  73.6364 0003088  51.5656 164.5302  1.00265236 45020
METEOSAT-10 (MSG-3)     
1 38552U 12035B   24115.90564354  .00000009  00000+0  00000+0 0  9990
2 38552   2.8463  60.5126 0002253 298.1781 180.8597  1.00269099 43007
METOP-B                 
1 38771U 12049A   24116.17224481  .00000486  00000+0  24177-3 0  9996
2 38771  98.6316 174.5725 0001443 125.8214 234.3098 14.21513624602014
INSAT-3D                
1 39216U 13038B   24115.89012002 -.00000141  00000+0  00000+0 0  9996
2 39216   0.0127 253.6195 0001055  64.2327 298.0577  1.00271339 39229
FENGYUN 3C              
1 39260U 13052A   24116.17849588  .00000432  00000+0  23864-3 0  9999
2 39260  98.4295 118.5956 0012202 117.1416 243.1004 14.16185632547829
METEOR-M 2              
1 40069U 14037A   24116.21935877  .00000523  00000+0  26044-3 0  9998
2 40069  98.4364 112.8282 0006417 142.6725 217.4900 14.20940103508105
HIMAWARI-8              
1 40267U 14060A   24115.87549324 -.00000260  00000+0  00000+0 0  9992
2 40267   0.0418 131.2329 0001088 270.0373 267.9634  1.00272691 34905
FENGYUN 2G              
1 40367U 14090A   24115.99699615 -.00000285  00000+0  00000+0 0  9995
2 40367   3.6544  82.1072 0002415  73.7348 156.2794  1.00269015 34182
METEOSAT-11 (MSG-4)     
1 40732U 15034A   24116.12230865  .00000082  00000+0  00000+0 0  9998
2 40732   1.2602  67.6267 0000819 231.7433 328.0081  1.00281904 32163
ELEKTRO-L 2             
1 41105U 15074A   24115.75950616 -.00000099  00000+0  00000+0 0  9997
2 41105   4.7058  80.0778 0001338 228.6404 163.4483  1.00273290 30655
INSAT-3DR               
1 41752U 16054A   24115.84873076 -.00000063  00000+0  00000+0 0  9999
2 41752   0.1548  88.5218 0010633 188.3954 315.9985  1.00272327 27960
HIMAWARI-9              
1 41836U 16064A   24115.87549324 -.00000260  00000+0  00000+0 0  9991
2 41836   0.0064 196.2971 0001053 226.1789 246.8455  1.00270728 27351
GOES 16                 
1 41866U 16071A   24115.89067566 -.00000233  00000+0  00000+0 0  9997
2 41866   0.0212 282.2780 0000741 135.1591  41.4084  1.00272023 27252
FENGYUN 4A              
1 41882U 16077A   24115.74523727 -.00000183  00000+0  00000+0 0  9995
2 41882   0.3224  83.1696 0008858 344.5062 140.5504  1.00264752 27074
CYGFM05                 
1 41884U 16078A   24115.51420824  .00017033  00000+0  65032-3 0  9998
2 41884  34.9544 280.5837 0012012  64.4840 295.7115 15.25721940407873
CYGFM04                 
1 41885U 16078B   24115.53414455  .00017773  00000+0  66092-3 0  9992
2 41885  34.9469 265.0318 0009473  90.7860 269.3940 15.26611143407960
CYGFM02                 
1 41886U 16078C   24115.50373204  .00017305  00000+0  63741-3 0  9995
2 41886  34.9547 267.5980 0012636  78.0595 282.1536 15.26895600408045
CYGFM01                 
1 41887U 16078D   24115.55180628  .00016085  00000+0  61963-3 0  9995
2 41887  34.9493 284.0489 0012272  57.1676 303.0219 15.25429633407811
CYGFM08                 
1 41888U 16078E   24115.53903025  .00017578  00000+0  65744-3 0  9997
2 41888  34.9457 272.8298 0012676  81.1180 279.0970 15.26388535407980
CYGFM07                 
1 41890U 16078G   24115.52748375  .00017576  00000+0  65165-3 0  9999
2 41890  34.9489 264.5188 0009222  89.1779 270.9992 15.26713491407975
CYGFM03                 
1 41891U 16078H   24115.49386738  .00018026  00000+0  66947-3 0  9997
2 41891  34.9522 265.8614 0010624  72.5188 287.6687 15.26640385408103
FENGYUN 3D              
1 43010U 17072A   24116.15334567  .00000417  00000+0  22033-3 0  9997
2 43010  98.9067  70.5110 0002431 109.9924 250.1513 14.19324168333899
NOAA 20 (JPSS-1)        
1 43013U 17073A   24116.12744836  .00000282  00000+0  15431-3 0  9996
2 43013  98.7035  54.9456 0001650  51.0465 309.0858 14.19569727333374
GOES 17                 
1 43226U 18022A   24115.88475813 -.00000076  00000+0  00000+0 0  9999
2 43226   0.0032 326.4508 0000863  58.2732  42.4879  1.00272081 22566
FENGYUN 2H              
1 43491U 18050A   24115.90188175 -.00000114  00000+0  00000+0 0  9992
2 43491   1.0044  87.5574 0001331   9.8092 159.9854  1.00274347 21589
METOP-C                 
1 43689U 18087A   24116.13850841  .00000492  00000+0  24519-3 0  9996
2 43689  98.7276 176.0237 0001404 211.1751 148.9343 14.21479728283587
GEO-KOMPSAT-2A          
1 43823U 18100A   24116.12618656 -.00000329  00000+0  00000+0 0  9992
2 43823   0.0191  74.6248 0002468 359.5391 313.1397  1.00267541 19811
METEOR-M2 2             
1 44387U 19038A   24116.16694015  .00000227  00000+0  11893-3 0  9998
2 44387  98.8232  85.1949 0002344 101.4599 258.6843 14.23875320249846
ARKTIKA-M 1             
1 47719U 21016A   24114.91902397  .00000155  00000+0  00000+0 0  9999
2 47719  63.1362 157.9648 6924711 268.8149  18.0436  2.00603405 23051
FENGYUN 3E              
1 49008U 21062A   24116.13920243  .00000138  00000+0  85667-4 0  9997
2 49008  98.7332 118.1302 0001860 146.2278 213.9017 14.19745703145460
GOES 18                 
1 51850U 22021A   24116.16468863  .00000112  00000+0  00000+0 0  9994
2 51850   0.0043  45.3908 0000437 339.4039 111.1582  1.00272346  7957
NOAA 21 (JPSS-2)        
1 54234U 22150A   24115.87917966  .00000435  00000+0  22692-3 0  9999
2 54234  98.7489  54.4060 0000748  62.8314 297.2939 14.19554592 75410
METEOSAT-12 (MTG-I1)    
1 54743U 22170C   24115.90555652  .00000008  00000+0  00000+0 0  9991
2 54743   0.4370  27.9609 0001240  28.2625 122.7802  1.00274325  5128
TIANMU-1 03             
1 55973U 23039A   24116.14740340  .00017061  00000+0  68201-3 0  9997
2 55973  97.4631 266.9790 0011182 296.4881  63.5210 15.25124376 60774
TIANMU-1 04             
1 55974U 23039B   24116.19605897  .00016663  00000+0  66707-3 0  9996
2 55974  97.4551 266.6447 0008291 295.8695  64.1687 15.25105610 60770
TIANMU-1 05             
1 55975U 23039C   24116.18181267  .00017181  00000+0  68819-3 0  9998
2 55975  97.4600 266.9188 0004536 289.5134  70.5614 15.25101482 60760
TIANMU-1 06             
1 55976U 23039D   24116.16630546  .00017540  00000+0  70261-3 0  9999
2 55976  97.4614 267.0091 0004031 292.4543  67.6267 15.25097541 60769
METEOR-M2 3             
1 57166U 23091A   24116.20230730  .00000137  00000+0  78938-4 0  9990
2 57166  98.7174 171.3387 0002859 287.6583  72.4283 14.23885558 43086
TIANMU-1 07             
1 57399U 23101A   24116.18582837  .00010584  00000+0  54903-3 0  9997
2 57399  97.3671 174.8448 0005331  31.2130 328.9419 15.16310071 42395
TIANMU-1 08             
1 57400U 23101B   24116.15575508  .00009827  00000+0  50956-3 0  9996
2 57400  97.3663 174.6948 0007729  31.9921 328.1780 15.16331587 42387
TIANMU-1 09             
1 57401U 23101C   24116.20344467  .00009240  00000+0  48001-3 0  9998
2 57401  97.3615 174.6177 0007979  26.5439 333.6201 15.16283285 42391
TIANMU-1 10             
1 57402U 23101D   24116.16889267  .00010562  00000+0  54814-3 0  9994
2 57402  97.3695 174.8054 0010096  22.4975 337.6698 15.16265096 42383
FENGYUN 3F              
1 57490U 23111A   24116.16633108  .00000342  00000+0  18208-3 0  9995
2 57490  98.7720 185.7799 0000674 143.6890 216.4332 14.19798291 37747
TIANMU-1 11             
1 58645U 23205A   24116.20526727  .00008710  00000+0  47787-3 0  9996
2 58645  97.4076 142.6788 0010514 219.8377 140.2084 15.14344428 18494
TIANMU-1 12             
1 58646U 23205B   24116.15552066  .00009726  00000+0  53321-3 0  9995
2 58646  97.4059 142.5700 0009324 210.9260 149.1424 15.14348182 18474
TIANMU-1 13             
1 58647U 23205C   24116.18799758  .00008667  00000+0  47570-3 0  9992
2 58647  97.4090 142.5757 0009717 194.5665 165.5288 15.14339303 18479
TIANMU-1 14             
1 58648U 23205D   24115.64343484  .00005663  00000+0  31221-3 0  9993
2 58648  97.4016 141.9619 0010116 197.2944 162.7945 15.14331186 18394
TIANMU-1 19             
1 58660U 23208A   24116.17449369  .00012332  00000+0  67826-3 0  9999
2 58660  97.4060 229.9422 0009937 181.8397 178.2800 15.14167036 18142
TIANMU-1 20             
1 58661U 23208B   24116.20606563  .00012137  00000+0  65348-3 0  9995
2 58661  97.3983 229.9334 0010336 192.6216 167.4759 15.14924376 18155
TIANMU-1 21             
1 58662U 23208C   24116.22875850  .00012296  00000+0  64714-3 0  9997
2 58662  97.4024 230.1195 0010033 191.9636 168.1360 15.15733643 18167
TIANMU-1 22             
1 58663U 23208D   24116.19077921  .00011828  00000+0  65075-3 0  9998
2 58663  97.4044 230.0447 0005514 198.0884 162.0153 15.14193115 18155
TIANMU-1 15             
1 58700U 24004A   24115.43948144  .00011602  00000+0  63324-3 0  9990
2 58700  97.4622 297.5710 0009348 231.6214 128.4178 15.14464182 16639
TIANMU-1 16             
1 58701U 24004B   24115.55570762  .00009902  00000+0  54180-3 0  9991
2 58701  97.4550 297.6140 0009220 238.6386 121.3944 15.14417141 16652
TIANMU-1 17             
1 58702U 24004C   24116.20062682  .00009975  00000+0  54543-3 0  9995
2 58702  97.4588 298.3467 0006812 229.3131 130.7510 15.14456843 16748
